HIERARCHY
ROOT HumanoidRootPart
{
	OFFSET 0.000000 1.000000 0.000000
	CHANNELS 6 Xposition Yposition Zposition Zrotation Yrotation Xrotation
	JOINT Torso
	{
		OFFSET 0.000000 0.000000 0.000000
		CHANNELS 3 Zrotation Yrotation Xrotation
		JOINT Head
		{
			OFFSET 0.000000 2.000000 0.000000
			CHANNELS 3 Zrotation Yrotation Xrotation
			End Site
			{
				OFFSET 0.0 0.0 0.0
			}
		}
		JOINT Right Arm
		{
			OFFSET 1.500000 2.000000 0.000000
			CHANNELS 3 Zrotation Yrotation Xrotation
			End Site
			{
				OFFSET 0.0 0.0 0.0
			}
		}
		JOINT Left Arm
		{
			OFFSET -1.500000 2.000000 0.000000
			CHANNELS 3 Zrotation Yrotation Xrotation
			End Site
			{
				OFFSET 0.0 0.0 0.0
			}
		}
		JOINT Right Leg
		{
			OFFSET 0.500000 1.000000 0.000000
			CHANNELS 3 Zrotation Yrotation Xrotation
			End Site
			{
				OFFSET 0.0 0.0 0.0
			}
		}
		JOINT Left Leg
		{
			OFFSET -0.500000 1.000000 0.000000
			CHANNELS 3 Zrotation Yrotation Xrotation
			End Site
			{
				OFFSET 0.0 0.0 0.0
			}
		}
	}
}
MOTION
Frames: 25
Frame Time: 0.033333
0.000000 1.020000 0.000000 0.000000 0.000000 0.000000 0.000000 0.000000 0.000000 0.000000 0.000000 0.000000 0.000000 0.000000 -0.300000 0.000000 0.000000 -0.300000 0.000000 0.000000 0.000000 0.000000 0.000000 -0.000000
0.000000 1.019319 0.000000 0.000000 0.000000 0.000000 0.000000 0.000000 0.056940 0.000000 0.000000 -0.020706 0.000000 0.000000 -0.610583 0.000000 0.000000 -0.610583 0.000000 0.000000 0.038823 0.000000 0.000000 -0.038823
0.000000 1.017321 0.000000 0.000000 0.000000 0.000000 0.000000 0.000000 0.110000 0.000000 0.000000 -0.040000 0.000000 0.000000 -0.900000 0.000000 0.000000 -0.900000 0.000000 0.000000 0.075000 0.000000 0.000000 -0.075000
0.000000 1.014142 0.000000 0.000000 0.000000 0.000000 0.000000 0.000000 0.155563 0.000000 0.000000 -0.056569 0.000000 0.000000 -1.148528 0.000000 0.000000 -1.148528 0.000000 0.000000 0.106066 0.000000 0.000000 -0.106066
0.000000 1.010000 0.000000 0.000000 0.000000 0.000000 0.000000 0.000000 0.190526 0.000000 0.000000 -0.069282 0.000000 0.000000 -1.339230 0.000000 0.000000 -1.339230 0.000000 0.000000 0.129904 0.000000 0.000000 -0.129904
0.000000 1.005176 0.000000 0.000000 0.000000 0.000000 0.000000 0.000000 0.212504 0.000000 0.000000 -0.077274 0.000000 0.000000 -1.459111 0.000000 0.000000 -1.459111 0.000000 0.000000 0.144889 0.000000 0.000000 -0.144889
0.000000 1.000000 0.000000 0.000000 0.000000 0.000000 0.000000 0.000000 0.220000 0.000000 0.000000 -0.080000 0.000000 0.000000 -1.500000 0.000000 0.000000 -1.500000 0.000000 0.000000 0.150000 0.000000 0.000000 -0.150000
0.000000 0.994824 0.000000 0.000000 0.000000 0.000000 0.000000 0.000000 0.212504 0.000000 0.000000 -0.077274 0.000000 0.000000 -1.459111 0.000000 0.000000 -1.459111 0.000000 0.000000 0.144889 0.000000 0.000000 -0.144889
0.000000 0.990000 0.000000 0.000000 0.000000 0.000000 0.000000 0.000000 0.190526 0.000000 0.000000 -0.069282 0.000000 0.000000 -1.339230 0.000000 0.000000 -1.339230 0.000000 0.000000 0.129904 0.000000 0.000000 -0.129904
0.000000 0.985858 0.000000 0.000000 0.000000 0.000000 0.000000 0.000000 0.155563 0.000000 0.000000 -0.056569 0.000000 0.000000 -1.148528 0.000000 0.000000 -1.148528 0.000000 0.000000 0.106066 0.000000 0.000000 -0.106066
0.000000 0.982679 0.000000 0.000000 0.000000 0.000000 0.000000 0.000000 0.110000 0.000000 0.000000 -0.040000 0.000000 0.000000 -0.900000 0.000000 0.000000 -0.900000 0.000000 0.000000 0.075000 0.000000 0.000000 -0.075000
0.000000 0.980681 0.000000 0.000000 0.000000 0.000000 0.000000 0.000000 0.056940 0.000000 0.000000 -0.020706 0.000000 0.000000 -0.610583 0.000000 0.000000 -0.610583 0.000000 0.000000 0.038823 0.000000 0.000000 -0.038823
0.000000 0.980000 0.000000 0.000000 0.000000 0.000000 0.000000 0.000000 0.000000 0.000000 0.000000 -0.000000 0.000000 0.000000 -0.300000 0.000000 0.000000 -0.300000 0.000000 0.000000 0.000000 0.000000 0.000000 -0.000000
0.000000 0.980681 0.000000 0.000000 0.000000 0.000000 0.000000 0.000000 -0.056940 0.000000 0.000000 0.020706 0.000000 0.000000 0.010583 0.000000 0.000000 0.010583 0.000000 0.000000 -0.038823 0.000000 0.000000 0.038823
0.000000 0.982679 0.000000 0.000000 0.000000 0.000000 0.000000 0.000000 -0.110000 0.000000 0.000000 0.040000 0.000000 0.000000 0.300000 0.000000 0.000000 0.300000 0.000000 0.000000 -0.075000 0.000000 0.000000 0.075000
0.000000 0.985858 0.000000 0.000000 0.000000 0.000000 0.000000 0.000000 -0.155563 0.000000 0.000000 0.056569 0.000000 0.000000 0.548528 0.000000 0.000000 0.548528 0.000000 0.000000 -0.106066 0.000000 0.000000 0.106066
0.000000 0.990000 0.000000 0.000000 0.000000 0.000000 0.000000 0.000000 -0.190526 0.000000 0.000000 0.069282 0.000000 0.000000 0.739230 0.000000 0.000000 0.739230 0.000000 0.000000 -0.129904 0.000000 0.000000 0.129904
0.000000 0.994824 0.000000 0.000000 0.000000 0.000000 0.000000 0.000000 -0.212504 0.000000 0.000000 0.077274 0.000000 0.000000 0.859111 0.000000 0.000000 0.859111 0.000000 0.000000 -0.144889 0.000000 0.000000 0.144889
0.000000 1.000000 0.000000 0.000000 0.000000 0.000000 0.000000 0.000000 -0.220000 0.000000 0.000000 0.080000 0.000000 0.000000 0.900000 0.000000 0.000000 0.900000 0.000000 0.000000 -0.150000 0.000000 0.000000 0.150000
0.000000 1.005176 0.000000 0.000000 0.000000 0.000000 0.000000 0.000000 -0.212504 0.000000 0.000000 0.077274 0.000000 0.000000 0.859111 0.000000 0.000000 0.859111 0.000000 0.000000 -0.144889 0.000000 0.000000 0.144889
0.000000 1.010000 0.000000 0.000000 0.000000 0.000000 0.000000 0.000000 -0.190526 0.000000 0.000000 0.069282 0.000000 0.000000 0.739230 0.000000 0.000000 0.739230 0.000000 0.000000 -0.129904 0.000000 0.000000 0.129904
0.000000 1.014142 0.000000 0.000000 0.000000 0.000000 0.000000 0.000000 -0.155563 0.000000 0.000000 0.056569 0.000000 0.000000 0.548528 0.000000 0.000000 0.548528 0.000000 0.000000 -0.106066 0.000000 0.000000 0.106066
0.000000 1.017321 0.000000 0.000000 0.000000 0.000000 0.000000 0.000000 -0.110000 0.000000 0.000000 0.040000 0.000000 0.000000 0.300000 0.000000 0.000000 0.300000 0.000000 0.000000 -0.075000 0.000000 0.000000 0.075000
0.000000 1.019319 0.000000 0.000000 0.000000 0.000000 0.000000 0.000000 -0.056940 0.000000 0.000000 0.020706 0.000000 0.000000 0.010583 0.000000 0.000000 0.010583 0.000000 0.000000 -0.038823 0.000000 0.000000 0.038823
0.000000 1.020000 0.000000 0.000000 0.000000 0.000000 0.000000 0.000000 -0.000000 0.000000 0.000000 0.000000 0.000000 0.000000 -0.300000 0.000000 0.000000 -0.300000 0.000000 0.000000 -0.000000 0.000000 0.000000 0.000000
