HIERARCHY
ROOT HumanoidRootPart
{
	OFFSET 0.000000 1.000000 0.000000
	CHANNELS 6 Xposition Yposition Zposition Zrotation Yrotation Xrotation
	JOINT Torso
	{
		OFFSET 0.000000 0.000000 0.000000
		CHANNELS 3 Zrotation Yrotation Xrotation
		JOINT Head
		{
			OFFSET 0.000000 2.000000 0.000000
			CHANNELS 3 Zrotation Yrotation Xrotation
			End Site
			{
				OFFSET 0.0 0.0 0.0
			}
		}
		JOINT Right Arm
		{
			OFFSET 1.500000 2.000000 0.000000
			CHANNELS 3 Zrotation Yrotation Xrotation
			End Site
			{
				OFFSET 0.0 0.0 0.0
			}
		}
		JOINT Left Arm
		{
			OFFSET -1.500000 2.000000 0.000000
			CHANNELS 3 Zrotation Yrotation Xrotation
			End Site
			{
				OFFSET 0.0 0.0 0.0
			}
		}
		JOINT Right Leg
		{
			OFFSET 0.500000 1.000000 0.000000
			CHANNELS 3 Zrotation Yrotation Xrotation
			End Site
			{
				OFFSET 0.0 0.0 0.0
			}
		}
		JOINT Left Leg
		{
			OFFSET -0.500000 1.000000 0.000000
			CHANNELS 3 Zrotation Yrotation Xrotation
			End Site
			{
				OFFSET 0.0 0.0 0.0
			}
		}
	}
}
MOTION
Frames: 25
Frame Time: 0.033333
0.000000 1.000000 0.000000 0.000000 0.000000 0.000000 0.000000 0.000000 -0.080000 0.000000 0.000000 0.000000 0.000000 0.000000 -1.200000 0.000000 0.000000 -1.200000 0.000000 0.000000 0.000000 0.000000 0.000000 0.000000
0.000000 1.002588 0.000000 0.000000 0.000000 0.000000 0.000000 0.000000 -0.074824 0.000000 0.000000 0.007765 0.000000 0.000000 -1.184471 0.000000 0.000000 -1.184471 0.000000 0.000000 0.000000 0.000000 0.000000 0.000000
0.000000 1.005000 0.000000 0.000000 0.000000 0.000000 0.000000 0.000000 -0.070000 0.000000 0.000000 0.015000 0.000000 0.000000 -1.170000 0.000000 0.000000 -1.170000 0.000000 0.000000 0.000000 0.000000 0.000000 0.000000
0.000000 1.007071 0.000000 0.000000 0.000000 0.000000 0.000000 0.000000 -0.065858 0.000000 0.000000 0.021213 0.000000 0.000000 -1.157574 0.000000 0.000000 -1.157574 0.000000 0.000000 0.000000 0.000000 0.000000 0.000000
0.000000 1.008660 0.000000 0.000000 0.000000 0.000000 0.000000 0.000000 -0.062679 0.000000 0.000000 0.025981 0.000000 0.000000 -1.148038 0.000000 0.000000 -1.148038 0.000000 0.000000 0.000000 0.000000 0.000000 0.000000
0.000000 1.009659 0.000000 0.000000 0.000000 0.000000 0.000000 0.000000 -0.060681 0.000000 0.000000 0.028978 0.000000 0.000000 -1.142044 0.000000 0.000000 -1.142044 0.000000 0.000000 0.000000 0.000000 0.000000 0.000000
0.000000 1.010000 0.000000 0.000000 0.000000 0.000000 0.000000 0.000000 -0.060000 0.000000 0.000000 0.030000 0.000000 0.000000 -1.140000 0.000000 0.000000 -1.140000 0.000000 0.000000 0.000000 0.000000 0.000000 0.000000
0.000000 1.009659 0.000000 0.000000 0.000000 0.000000 0.000000 0.000000 -0.060681 0.000000 0.000000 0.028978 0.000000 0.000000 -1.142044 0.000000 0.000000 -1.142044 0.000000 0.000000 0.000000 0.000000 0.000000 0.000000
0.000000 1.008660 0.000000 0.000000 0.000000 0.000000 0.000000 0.000000 -0.062679 0.000000 0.000000 0.025981 0.000000 0.000000 -1.148038 0.000000 0.000000 -1.148038 0.000000 0.000000 0.000000 0.000000 0.000000 0.000000
0.000000 1.007071 0.000000 0.000000 0.000000 0.000000 0.000000 0.000000 -0.065858 0.000000 0.000000 0.021213 0.000000 0.000000 -1.157574 0.000000 0.000000 -1.157574 0.000000 0.000000 0.000000 0.000000 0.000000 0.000000
0.000000 1.005000 0.000000 0.000000 0.000000 0.000000 0.000000 0.000000 -0.070000 0.000000 0.000000 0.015000 0.000000 0.000000 -1.170000 0.000000 0.000000 -1.170000 0.000000 0.000000 0.000000 0.000000 0.000000 0.000000
0.000000 1.002588 0.000000 0.000000 0.000000 0.000000 0.000000 0.000000 -0.074824 0.000000 0.000000 0.007765 0.000000 0.000000 -1.184471 0.000000 0.000000 -1.184471 0.000000 0.000000 0.000000 0.000000 0.000000 0.000000
0.000000 1.000000 0.000000 0.000000 0.000000 0.000000 0.000000 0.000000 -0.080000 0.000000 0.000000 0.000000 0.000000 0.000000 -1.200000 0.000000 0.000000 -1.200000 0.000000 0.000000 0.000000 0.000000 0.000000 0.000000
0.000000 0.997412 0.000000 0.000000 0.000000 0.000000 0.000000 0.000000 -0.085176 0.000000 0.000000 -0.007765 0.000000 0.000000 -1.215529 0.000000 0.000000 -1.215529 0.000000 0.000000 0.000000 0.000000 0.000000 0.000000
0.000000 0.995000 0.000000 0.000000 0.000000 0.000000 0.000000 0.000000 -0.090000 0.000000 0.000000 -0.015000 0.000000 0.000000 -1.230000 0.000000 0.000000 -1.230000 0.000000 0.000000 0.000000 0.000000 0.000000 0.000000
0.000000 0.992929 0.000000 0.000000 0.000000 0.000000 0.000000 0.000000 -0.094142 0.000000 0.000000 -0.021213 0.000000 0.000000 -1.242426 0.000000 0.000000 -1.242426 0.000000 0.000000 0.000000 0.000000 0.000000 0.000000
0.000000 0.991340 0.000000 0.000000 0.000000 0.000000 0.000000 0.000000 -0.097321 0.000000 0.000000 -0.025981 0.000000 0.000000 -1.251962 0.000000 0.000000 -1.251962 0.000000 0.000000 0.000000 0.000000 0.000000 0.000000
0.000000 0.990341 0.000000 0.000000 0.000000 0.000000 0.000000 0.000000 -0.099319 0.000000 0.000000 -0.028978 0.000000 0.000000 -1.257956 0.000000 0.000000 -1.257956 0.000000 0.000000 0.000000 0.000000 0.000000 0.000000
0.000000 0.990000 0.000000 0.000000 0.000000 0.000000 0.000000 0.000000 -0.100000 0.000000 0.000000 -0.030000 0.000000 0.000000 -1.260000 0.000000 0.000000 -1.260000 0.000000 0.000000 0.000000 0.000000 0.000000 0.000000
0.000000 0.990341 0.000000 0.000000 0.000000 0.000000 0.000000 0.000000 -0.099319 0.000000 0.000000 -0.028978 0.000000 0.000000 -1.257956 0.000000 0.000000 -1.257956 0.000000 0.000000 0.000000 0.000000 0.000000 0.000000
0.000000 0.991340 0.000000 0.000000 0.000000 0.000000 0.000000 0.000000 -0.097321 0.000000 0.000000 -0.025981 0.000000 0.000000 -1.251962 0.000000 0.000000 -1.251962 0.000000 0.000000 0.000000 0.000000 0.000000 0.000000
0.000000 0.992929 0.000000 0.000000 0.000000 0.000000 0.000000 0.000000 -0.094142 0.000000 0.000000 -0.021213 0.000000 0.000000 -1.242426 0.000000 0.000000 -1.242426 0.000000 0.000000 0.000000 0.000000 0.000000 0.000000
0.000000 0.995000 0.000000 0.000000 0.000000 0.000000 0.000000 0.000000 -0.090000 0.000000 0.000000 -0.015000 0.000000 0.000000 -1.230000 0.000000 0.000000 -1.230000 0.000000 0.000000 0.000000 0.000000 0.000000 0.000000
0.000000 0.997412 0.000000 0.000000 0.000000 0.000000 0.000000 0.000000 -0.085176 0.000000 0.000000 -0.007765 0.000000 0.000000 -1.215529 0.000000 0.000000 -1.215529 0.000000 0.000000 0.000000 0.000000 0.000000 0.000000
0.000000 1.000000 0.000000 0.000000 0.000000 0.000000 0.000000 0.000000 -0.080000 0.000000 0.000000 -0.000000 0.000000 0.000000 -1.200000 0.000000 0.000000 -1.200000 0.000000 0.000000 0.000000 0.000000 0.000000 0.000000
