HIERARCHY
ROOT HumanoidRootPart
{
	OFFSET 0.000000 1.000000 0.000000
	CHANNELS 6 Xposition Yposition Zposition Zrotation Yrotation Xrotation
	JOINT Torso
	{
		OFFSET 0.000000 0.000000 0.000000
		CHANNELS 3 Zrotation Yrotation Xrotation
		JOINT Head
		{
			OFFSET 0.000000 2.000000 0.000000
			CHANNELS 3 Zrotation Yrotation Xrotation
			End Site
			{
				OFFSET 0.0 0.0 0.0
			}
		}
		JOINT Right Arm
		{
			OFFSET 1.500000 2.000000 0.000000
			CHANNELS 3 Zrotation Yrotation Xrotation
			End Site
			{
				OFFSET 0.0 0.0 0.0
			}
		}
		JOINT Left Arm
		{
			OFFSET -1.500000 2.000000 0.000000
			CHANNELS 3 Zrotation Yrotation Xrotation
			End Site
			{
				OFFSET 0.0 0.0 0.0
			}
		}
		JOINT Right Leg
		{
			OFFSET 0.500000 1.000000 0.000000
			CHANNELS 3 Zrotation Yrotation Xrotation
			End Site
			{
				OFFSET 0.0 0.0 0.0
			}
		}
		JOINT Left Leg
		{
			OFFSET -0.500000 1.000000 0.000000
			CHANNELS 3 Zrotation Yrotation Xrotation
			End Site
			{
				OFFSET 0.0 0.0 0.0
			}
		}
	}
}
MOTION
Frames: 21
Frame Time: 0.033333
0.000000 1.090000 0.000000 0.000000 0.000000 0.000000 0.000000 0.000000 0.300000 0.000000 -0.000000 0.000000 0.000000 0.000000 0.000000 0.000000 0.000000 -0.000000 0.000000 0.000000 -0.000000 0.000000 0.000000 0.000000
0.000000 1.072812 0.000000 0.000000 0.000000 0.000000 0.015451 0.030902 0.300000 0.000000 -0.030902 -0.018541 0.000000 0.000000 0.262664 0.000000 0.000000 -0.262664 0.000000 0.000000 -0.293566 0.000000 0.000000 0.293566
0.000000 1.027812 0.000000 0.000000 0.000000 0.000000 0.029389 0.058779 0.300000 0.000000 -0.058779 -0.035267 0.000000 0.000000 0.499617 0.000000 0.000000 -0.499617 0.000000 0.000000 -0.558396 0.000000 0.000000 0.558396
0.000000 0.972188 0.000000 0.000000 0.000000 0.000000 0.040451 0.080902 0.300000 0.000000 -0.080902 -0.048541 0.000000 0.000000 0.687664 0.000000 0.000000 -0.687664 0.000000 0.000000 -0.768566 0.000000 0.000000 0.768566
0.000000 0.927188 0.000000 0.000000 0.000000 0.000000 0.047553 0.095106 0.300000 0.000000 -0.095106 -0.057063 0.000000 0.000000 0.808398 0.000000 0.000000 -0.808398 0.000000 0.000000 -0.903504 0.000000 0.000000 0.903504
0.000000 0.910000 0.000000 0.000000 0.000000 0.000000 0.050000 0.100000 0.300000 0.000000 -0.100000 -0.060000 0.000000 0.000000 0.850000 0.000000 0.000000 -0.850000 0.000000 0.000000 -0.950000 0.000000 0.000000 0.950000
0.000000 0.927188 0.000000 0.000000 0.000000 0.000000 0.047553 0.095106 0.300000 0.000000 -0.095106 -0.057063 0.000000 0.000000 0.808398 0.000000 0.000000 -0.808398 0.000000 0.000000 -0.903504 0.000000 0.000000 0.903504
0.000000 0.972188 0.000000 0.000000 0.000000 0.000000 0.040451 0.080902 0.300000 0.000000 -0.080902 -0.048541 0.000000 0.000000 0.687664 0.000000 0.000000 -0.687664 0.000000 0.000000 -0.768566 0.000000 0.000000 0.768566
0.000000 1.027812 0.000000 0.000000 0.000000 0.000000 0.029389 0.058779 0.300000 0.000000 -0.058779 -0.035267 0.000000 0.000000 0.499617 0.000000 0.000000 -0.499617 0.000000 0.000000 -0.558396 0.000000 0.000000 0.558396
0.000000 1.072812 0.000000 0.000000 0.000000 0.000000 0.015451 0.030902 0.300000 0.000000 -0.030902 -0.018541 0.000000 0.000000 0.262664 0.000000 0.000000 -0.262664 0.000000 0.000000 -0.293566 0.000000 0.000000 0.293566
0.000000 1.090000 0.000000 0.000000 0.000000 0.000000 0.000000 0.000000 0.300000 0.000000 -0.000000 -0.000000 0.000000 0.000000 0.000000 0.000000 0.000000 -0.000000 0.000000 0.000000 -0.000000 0.000000 0.000000 0.000000
0.000000 1.072812 0.000000 0.000000 0.000000 0.000000 -0.015451 -0.030902 0.300000 0.000000 0.030902 0.018541 0.000000 0.000000 -0.262664 0.000000 0.000000 0.262664 0.000000 0.000000 0.293566 0.000000 0.000000 -0.293566
0.000000 1.027812 0.000000 0.000000 0.000000 0.000000 -0.029389 -0.058779 0.300000 0.000000 0.058779 0.035267 0.000000 0.000000 -0.499617 0.000000 0.000000 0.499617 0.000000 0.000000 0.558396 0.000000 0.000000 -0.558396
0.000000 0.972188 0.000000 0.000000 0.000000 0.000000 -0.040451 -0.080902 0.300000 0.000000 0.080902 0.048541 0.000000 0.000000 -0.687664 0.000000 0.000000 0.687664 0.000000 0.000000 0.768566 0.000000 0.000000 -0.768566
0.000000 0.927188 0.000000 0.000000 0.000000 0.000000 -0.047553 -0.095106 0.300000 0.000000 0.095106 0.057063 0.000000 0.000000 -0.808398 0.000000 0.000000 0.808398 0.000000 0.000000 0.903504 0.000000 0.000000 -0.903504
0.000000 0.910000 0.000000 0.000000 0.000000 0.000000 -0.050000 -0.100000 0.300000 0.000000 0.100000 0.060000 0.000000 0.000000 -0.850000 0.000000 0.000000 0.850000 0.000000 0.000000 0.950000 0.000000 0.000000 -0.950000
0.000000 0.927188 0.000000 0.000000 0.000000 0.000000 -0.047553 -0.095106 0.300000 0.000000 0.095106 0.057063 0.000000 0.000000 -0.808398 0.000000 0.000000 0.808398 0.000000 0.000000 0.903504 0.000000 0.000000 -0.903504
0.000000 0.972188 0.000000 0.000000 0.000000 0.000000 -0.040451 -0.080902 0.300000 0.000000 0.080902 0.048541 0.000000 0.000000 -0.687664 0.000000 0.000000 0.687664 0.000000 0.000000 0.768566 0.000000 0.000000 -0.768566
0.000000 1.027812 0.000000 0.000000 0.000000 0.000000 -0.029389 -0.058779 0.300000 0.000000 0.058779 0.035267 0.000000 0.000000 -0.499617 0.000000 0.000000 0.499617 0.000000 0.000000 0.558396 0.000000 0.000000 -0.558396
0.000000 1.072812 0.000000 0.000000 0.000000 0.000000 -0.015451 -0.030902 0.300000 0.000000 0.030902 0.018541 0.000000 0.000000 -0.262664 0.000000 0.000000 0.262664 0.000000 0.000000 0.293566 0.000000 0.000000 -0.293566
0.000000 1.090000 0.000000 0.000000 0.000000 0.000000 -0.000000 -0.000000 0.300000 0.000000 0.000000 0.000000 0.000000 0.000000 -0.000000 0.000000 0.000000 0.000000 0.000000 0.000000 0.000000 0.000000 0.000000 -0.000000
