HIERARCHY
ROOT HumanoidRootPart
{
	OFFSET 0.000000 1.000000 0.000000
	CHANNELS 6 Xposition Yposition Zposition Zrotation Yrotation Xrotation
	JOINT Torso
	{
		OFFSET 0.000000 0.000000 0.000000
		CHANNELS 3 Zrotation Yrotation Xrotation
		JOINT Head
		{
			OFFSET 0.000000 2.000000 0.000000
			CHANNELS 3 Zrotation Yrotation Xrotation
			End Site
			{
				OFFSET 0.0 0.0 0.0
			}
		}
		JOINT Right Arm
		{
			OFFSET 1.500000 2.000000 0.000000
			CHANNELS 3 Zrotation Yrotation Xrotation
			End Site
			{
				OFFSET 0.0 0.0 0.0
			}
		}
		JOINT Left Arm
		{
			OFFSET -1.500000 2.000000 0.000000
			CHANNELS 3 Zrotation Yrotation Xrotation
			End Site
			{
				OFFSET 0.0 0.0 0.0
			}
		}
		JOINT Right Leg
		{
			OFFSET 0.500000 1.000000 0.000000
			CHANNELS 3 Zrotation Yrotation Xrotation
			End Site
			{
				OFFSET 0.0 0.0 0.0
			}
		}
		JOINT Left Leg
		{
			OFFSET -0.500000 1.000000 0.000000
			CHANNELS 3 Zrotation Yrotation Xrotation
			End Site
			{
				OFFSET 0.0 0.0 0.0
			}
		}
	}
}
MOTION
Frames: 31
Frame Time: 0.033333
0.000000 1.050000 0.000000 0.000000 0.000000 0.000000 0.000000 0.000000 0.120000 0.000000 -0.000000 0.000000 0.000000 0.000000 0.000000 0.000000 0.000000 -0.000000 0.000000 0.000000 -0.000000 0.000000 0.000000 0.000000
0.000000 1.045677 0.000000 0.000000 0.000000 0.000000 0.006237 0.012475 0.120000 0.000000 -0.012475 -0.010396 0.000000 0.000000 0.103956 0.000000 0.000000 -0.103956 0.000000 0.000000 -0.128905 0.000000 0.000000 0.128905
0.000000 1.033457 0.000000 0.000000 0.000000 0.000000 0.012202 0.024404 0.120000 0.000000 -0.024404 -0.020337 0.000000 0.000000 0.203368 0.000000 0.000000 -0.203368 0.000000 0.000000 -0.252177 0.000000 0.000000 0.252177
0.000000 1.015451 0.000000 0.000000 0.000000 0.000000 0.017634 0.035267 0.120000 0.000000 -0.035267 -0.029389 0.000000 0.000000 0.293893 0.000000 0.000000 -0.293893 0.000000 0.000000 -0.364427 0.000000 0.000000 0.364427
0.000000 0.994774 0.000000 0.000000 0.000000 0.000000 0.022294 0.044589 0.120000 0.000000 -0.044589 -0.037157 0.000000 0.000000 0.371572 0.000000 0.000000 -0.371572 0.000000 0.000000 -0.460750 0.000000 0.000000 0.460750
0.000000 0.975000 0.000000 0.000000 0.000000 0.000000 0.025981 0.051962 0.120000 0.000000 -0.051962 -0.043301 0.000000 0.000000 0.433013 0.000000 0.000000 -0.433013 0.000000 0.000000 -0.536936 0.000000 0.000000 0.536936
0.000000 0.959549 0.000000 0.000000 0.000000 0.000000 0.028532 0.057063 0.120000 0.000000 -0.057063 -0.047553 0.000000 0.000000 0.475528 0.000000 0.000000 -0.475528 0.000000 0.000000 -0.589655 0.000000 0.000000 0.589655
0.000000 0.951093 0.000000 0.000000 0.000000 0.000000 0.029836 0.059671 0.120000 0.000000 -0.059671 -0.049726 0.000000 0.000000 0.497261 0.000000 0.000000 -0.497261 0.000000 0.000000 -0.616604 0.000000 0.000000 0.616604
0.000000 0.951093 0.000000 0.000000 0.000000 0.000000 0.029836 0.059671 0.120000 0.000000 -0.059671 -0.049726 0.000000 0.000000 0.497261 0.000000 0.000000 -0.497261 0.000000 0.000000 -0.616604 0.000000 0.000000 0.616604
0.000000 0.959549 0.000000 0.000000 0.000000 0.000000 0.028532 0.057063 0.120000 0.000000 -0.057063 -0.047553 0.000000 0.000000 0.475528 0.000000 0.000000 -0.475528 0.000000 0.000000 -0.589655 0.000000 0.000000 0.589655
0.000000 0.975000 0.000000 0.000000 0.000000 0.000000 0.025981 0.051962 0.120000 0.000000 -0.051962 -0.043301 0.000000 0.000000 0.433013 0.000000 0.000000 -0.433013 0.000000 0.000000 -0.536936 0.000000 0.000000 0.536936
0.000000 0.994774 0.000000 0.000000 0.000000 0.000000 0.022294 0.044589 0.120000 0.000000 -0.044589 -0.037157 0.000000 0.000000 0.371572 0.000000 0.000000 -0.371572 0.000000 0.000000 -0.460750 0.000000 0.000000 0.460750
0.000000 1.015451 0.000000 0.000000 0.000000 0.000000 0.017634 0.035267 0.120000 0.000000 -0.035267 -0.029389 0.000000 0.000000 0.293893 0.000000 0.000000 -0.293893 0.000000 0.000000 -0.364427 0.000000 0.000000 0.364427
0.000000 1.033457 0.000000 0.000000 0.000000 0.000000 0.012202 0.024404 0.120000 0.000000 -0.024404 -0.020337 0.000000 0.000000 0.203368 0.000000 0.000000 -0.203368 0.000000 0.000000 -0.252177 0.000000 0.000000 0.252177
0.000000 1.045677 0.000000 0.000000 0.000000 0.000000 0.006237 0.012475 0.120000 0.000000 -0.012475 -0.010396 0.000000 0.000000 0.103956 0.000000 0.000000 -0.103956 0.000000 0.000000 -0.128905 0.000000 0.000000 0.128905
0.000000 1.050000 0.000000 0.000000 0.000000 0.000000 0.000000 0.000000 0.120000 0.000000 -0.000000 -0.000000 0.000000 0.000000 0.000000 0.000000 0.000000 -0.000000 0.000000 0.000000 -0.000000 0.000000 0.000000 0.000000
0.000000 1.045677 0.000000 0.000000 0.000000 0.000000 -0.006237 -0.012475 0.120000 0.000000 0.012475 0.010396 0.000000 0.000000 -0.103956 0.000000 0.000000 0.103956 0.000000 0.000000 0.128905 0.000000 0.000000 -0.128905
0.000000 1.033457 0.000000 0.000000 0.000000 0.000000 -0.012202 -0.024404 0.120000 0.000000 0.024404 0.020337 0.000000 0.000000 -0.203368 0.000000 0.000000 0.203368 0.000000 0.000000 0.252177 0.000000 0.000000 -0.252177
0.000000 1.015451 0.000000 0.000000 0.000000 0.000000 -0.017634 -0.035267 0.120000 0.000000 0.035267 0.029389 0.000000 0.000000 -0.293893 0.000000 0.000000 0.293893 0.000000 0.000000 0.364427 0.000000 0.000000 -0.364427
0.000000 0.994774 0.000000 0.000000 0.000000 0.000000 -0.022294 -0.044589 0.120000 0.000000 0.044589 0.037157 0.000000 0.000000 -0.371572 0.000000 0.000000 0.371572 0.000000 0.000000 0.460750 0.000000 0.000000 -0.460750
0.000000 0.975000 0.000000 0.000000 0.000000 0.000000 -0.025981 -0.051962 0.120000 0.000000 0.051962 0.043301 0.000000 0.000000 -0.433013 0.000000 0.000000 0.433013 0.000000 0.000000 0.536936 0.000000 0.000000 -0.536936
0.000000 0.959549 0.000000 0.000000 0.000000 0.000000 -0.028532 -0.057063 0.120000 0.000000 0.057063 0.047553 0.000000 0.000000 -0.475528 0.000000 0.000000 0.475528 0.000000 0.000000 0.589655 0.000000 0.000000 -0.589655
0.000000 0.951093 0.000000 0.000000 0.000000 0.000000 -0.029836 -0.059671 0.120000 0.000000 0.059671 0.049726 0.000000 0.000000 -0.497261 0.000000 0.000000 0.497261 0.000000 0.000000 0.616604 0.000000 0.000000 -0.616604
0.000000 0.951093 0.000000 0.000000 0.000000 0.000000 -0.029836 -0.059671 0.120000 0.000000 0.059671 0.049726 0.000000 0.000000 -0.497261 0.000000 0.000000 0.497261 0.000000 0.000000 0.616604 0.000000 0.000000 -0.616604
0.000000 0.959549 0.000000 0.000000 0.000000 0.000000 -0.028532 -0.057063 0.120000 0.000000 0.057063 0.047553 0.000000 0.000000 -0.475528 0.000000 0.000000 0.475528 0.000000 0.000000 0.589655 0.000000 0.000000 -0.589655
0.000000 0.975000 0.000000 0.000000 0.000000 0.000000 -0.025981 -0.051962 0.120000 0.000000 0.051962 0.043301 0.000000 0.000000 -0.433013 0.000000 0.000000 0.433013 0.000000 0.000000 0.536936 0.000000 0.000000 -0.536936
0.000000 0.994774 0.000000 0.000000 0.000000 0.000000 -0.022294 -0.044589 0.120000 0.000000 0.044589 0.037157 0.000000 0.000000 -0.371572 0.000000 0.000000 0.371572 0.000000 0.000000 0.460750 0.000000 0.000000 -0.460750
0.000000 1.015451 0.000000 0.000000 0.000000 0.000000 -0.017634 -0.035267 0.120000 0.000000 0.035267 0.029389 0.000000 0.000000 -0.293893 0.000000 0.000000 0.293893 0.000000 0.000000 0.364427 0.000000 0.000000 -0.364427
0.000000 1.033457 0.000000 0.000000 0.000000 0.000000 -0.012202 -0.024404 0.120000 0.000000 0.024404 0.020337 0.000000 0.000000 -0.203368 0.000000 0.000000 0.203368 0.000000 0.000000 0.252177 0.000000 0.000000 -0.252177
0.000000 1.045677 0.000000 0.000000 0.000000 0.000000 -0.006237 -0.012475 0.120000 0.000000 0.012475 0.010396 0.000000 0.000000 -0.103956 0.000000 0.000000 0.103956 0.000000 0.000000 0.128905 0.000000 0.000000 -0.128905
0.000000 1.050000 0.000000 0.000000 0.000000 0.000000 -0.000000 -0.000000 0.120000 0.000000 0.000000 0.000000 0.000000 0.000000 -0.000000 0.000000 0.000000 0.000000 0.000000 0.000000 0.000000 0.000000 0.000000 -0.000000
